{
    "links": {
        "self": "http://www.neowsapp.com/rest/v1/neo/3842588?api_key=iIulBulltgU6a56xZRHN4H3l9WmuAYTsLGpBGhQ2"
    },
    "id": "3842588",
    "neo_reference_id": "3842588",
    "name": "(2019 KD2)",
    "designation": "2019 KD2",
    "nasa_jpl_url": "http://ssd.jpl.nasa.gov/sbdb.cgi?sstr=3842588",
    "absolute_magnitude_h": 24.9,
    "estimated_diameter": {
        "kilometers": {
            "estimated_diameter_min": 0.0278326768,
            "estimated_diameter_max": 0.0622357573
        },
        "meters": {
            "estimated_diameter_min": 27.8326768072,
            "estimated_diameter_max": 62.2357573367
        },
        "miles": {
            "estimated_diameter_min": 0.0172944182,
            "estimated_diameter_max": 0.0386714948
        },
        "feet": {
            "estimated_diameter_min": 91.3145593761,
            "estimated_diameter_max": 204.1855621004
        }
    },
    "is_potentially_hazardous_asteroid": false,
    "close_approach_data": [
        {
            "close_approach_date": "2016-08-24",
            "close_approach_date_full": "2016-Aug-24 15:40",
            "epoch_date_close_approach": 1472053200000,
            "relative_velocity": {
                "kilometers_per_second": "15.7425568291",
                "kilometers_per_hour": "56673.2045847528",
                "miles_per_hour": "35214.5253710093"
            },
            "miss_distance": {
                "astronomical": "0.0745480398",
                "lunar": "28.9991874822",
                "kilometers": "11152227.966755226",
                "miles": "6929673.1253290788"
            },
            "orbiting_body": "Mars"
        },
        {
            "close_approach_date": "2019-05-24",
            "close_approach_date_full": "2019-May-24 21:23",
            "epoch_date_close_approach": 1558732980000,
            "relative_velocity": {
                "kilometers_per_second": "9.6201687358",
                "kilometers_per_hour": "34632.607448821",
                "miles_per_hour": "21519.3554450744"
            },
            "miss_distance": {
                "astronomical": "0.0362349514",
                "lunar": "14.0953960946",
                "kilometers": "5420671.548993518",
                "miles": "3368249.1127578284"
            },
            "orbiting_body": "Earth"
        },
        {
            "close_approach_date": "2022-02-20",
            "close_approach_date_full": "2022-Feb-20 19:03",
            "epoch_date_close_approach": 1645383780000,
            "relative_velocity": {
                "kilometers_per_second": "17.797240315",
                "kilometers_per_hour": "64070.0651339435",
                "miles_per_hour": "39810.6468605884"
            },
            "miss_distance": {
                "astronomical": "0.2936630234",
                "lunar": "114.2349161026",
                "kilometers": "43931362.798400158",
                "miles": "27297683.0325438604"
            },
            "orbiting_body": "Earth"
        }
    ],
    "orbital_data": {
        "orbit_id": "5",
        "orbit_determination_date": "2019-06-10 12:21:49",
        "first_observation_date": "2019-05-21",
        "last_observation_date": "2019-06-07",
        "data_arc_in_days": 17,
        "observations_used": 75,
        "orbit_uncertainty": "7",
        "minimum_orbit_intersection": ".0308273",
        "jupiter_tisserand_invariant": "3.614",
        "epoch_osculation": "2459000.5",
        "eccentricity": ".5272319860623518",
        "semi_major_axis": "2.03929316632968",
        "inclination": "3.011664456370982",
        "ascending_node_longitude": "93.65197885908961",
        "orbital_period": "1063.696971508376",
        "perihelion_distance": ".9641125800823007",
        "perihelion_argument": "113.2548108521386",
        "aphelion_distance": "3.114473752577058",
        "perihelion_time": "2458599.656741640240",
        "mean_anomaly": "135.662295630008",
        "mean_motion": ".3384422534262759",
        "equinox": "J2000",
        "orbit_class": {
            "orbit_class_type": "APO",
            "orbit_class_description": "Near-Earth asteroid orbits which cross the Earth’s orbit similar to that of 1862 Apollo",
            "orbit_class_range": "a (semi-major axis) > 1.0 AU; q (perihelion) < 1.017 AU"
        }
    },
    "is_sentry_object": false
}